CCSDS_OEM_VERS = 2.0  
CREATION_DATE  = 2026-02-27T09:26:41
ORIGINATOR     = ESOC/OPS-GFA                            
 
 



META_START
OBJECT_NAME          = LISA                                    
OBJECT_ID            = -1000                                   
CENTER_NAME          = SUN                     
REF_FRAME            = EME2000 
TIME_SYSTEM          = TCB
START_TIME           = 2036-12-23T00:00:30.346418            
STOP_TIME            = 2047-09-09T03:02:52.055574            
INTERPOLATION        = HERMITE                                 
INTERPOLATION_DEGREE = 7                                       
META_STOP

2046-11-04T11:54:04.093821     1.40837992594377816e+08    4.56021620469080508e+07    1.84603160927332714e+07   -9.81918963896156427e+00    2.58831260194763608e+01    1.12930010087096910e+01   -5.62944948531551690e-06   -1.82266274019689056e-06   -7.37834331417643436e-07
2046-11-05T08:01:07.455882     1.40112115715112627e+08    4.74718596897253543e+07    1.92762296724660546e+07   -1.02258378933763794e+01    2.57484179236118642e+01    1.12383842010614057e+01   -5.60010580209143175e-06   -1.89728765328914955e-06   -7.70403221812418311e-07
2046-11-06T04:08:10.817942     1.39356865918773025e+08    4.93316059091239721e+07    2.00881024258554578e+07   -1.06303179419787899e+01    2.56083200816850791e+01    1.11814146782413371e+01   -5.56957475086492238e-06   -1.97150002660445201e-06   -8.02804319465918373e-07
2046-11-07T00:15:14.180002     1.38572403330169827e+08    5.11810114518643469e+07    2.08957644051998630e+07   -1.10325440404714499e+01    2.54628629570194249e+01    1.11221048482898066e+01   -5.53786323847804910e-06   -2.04528369684271125e-06   -8.35030562633909671e-07
2046-11-07T20:22:17.542063     1.37758894376594841e+08    5.30196893914583772e+07    2.16990466126835793e+07   -1.14324309517248057e+01    2.53120781805706088e+01    1.10604676294555624e+01   -5.50497835816702756e-06   -2.11862258169286617e-06   -8.67074923105936729e-07
2046-11-08T16:31:44.001639     1.36914818709929377e+08    5.48508548240619823e+07    2.24993545488053560e+07   -1.18306768510882563e+01    2.51556849290489417e+01    1.09963878055284088e+01   -5.47085961183788470e-06   -2.19164443639059754e-06   -8.98993248963410571e-07
2046-11-09T12:41:10.461214     1.36041934617435575e+08    5.66704795146679282e+07    2.32949285743813217e+07   -1.22264046451517139e+01    2.49940100025415006e+01    1.09299988708660951e+01   -5.43557835092136826e-06   -2.26418789747131443e-06   -9.30715042588092513e-07
2046-11-10T08:50:36.920790     1.35140427902210534e+08    5.84781814907221645e+07    2.40856016602094658e+07   -1.26195302701527972e+01    2.48270886870296934e+01    1.08613153368702609e+01   -5.39914275979643660e-06   -2.33623725099934683e-06   -9.62233426325098016e-07
2046-11-11T05:00:03.380365     1.34210490402732864e+08    6.02735813333588243e+07    2.48712078277558461e+07   -1.30099702634552994e+01    2.46549574055736436e+01    1.07903522126724116e+01   -5.36156122558226982e-06   -2.40777687504557770e-06   -9.93541561207675312e-07
2046-11-12T01:09:29.839941     1.33252319986723080e+08    6.20563023007557094e+07    2.56515822025945485e+07   -1.33976417790346165e+01    2.44776537110001620e+01    1.07171250020631206e+01   -5.32284235858669124e-06   -2.47879125671433796e-06   -1.02463265401441330e-06
2046-11-12T21:18:56.299517     1.32266120525617555e+08    6.38259704313518852e+07    2.64265610593111031e+07   -1.37824626042784750e+01    2.42952162774553884e+01    1.06416496999505696e+01   -5.28299500821654203e-06   -2.54926500643857100e-06   -1.05549996319633638e-06
2046-11-13T17:28:22.759093     1.31252101853615060e+08    6.55822146312006712e+07    2.71959818596821353e+07   -1.41643511777777409e+01    2.41076848910190691e+01    1.05639427884299142e+01   -5.24202827435649566e-06   -2.61918286954790269e-06   -1.08613680367581207e-06
2046-11-14T13:37:49.218669     1.30210479715260595e+08    6.73246667497133762e+07    2.79596832859360054e+07   -1.45432266077782160e+01    2.39151004395784632e+01    1.04840212325454303e+01   -5.19995151420450706e-06   -2.68852973510425339e-06   -1.11653655051504224e-06
2046-11-15T09:47:15.678244     1.29141475705531329e+08    6.90529616480493098e+07    2.87175052708992623e+07   -1.49190086909642048e+01    2.37175049021599555e+01    1.04019024758273275e+01   -5.15677434458454804e-06   -2.75729064201430426e-06   -1.14669264145795986e-06
2046-11-16T05:56:42.137820     1.28045317206389353e+08    7.07667372644072175e+07    2.94692890268337056e+07   -1.52916179312448062e+01    2.35149413379163690e+01    1.03176044356851833e+01   -5.11250663970311423e-06   -2.82545078240356066e-06   -1.17659857833931676e-06
2046-11-17T02:06:08.597395     1.26922237323765993e+08    7.24656346804738641e+07    3.02148770747688599e+07   -1.56609755582137176e+01    2.33074538749680293e+01    1.02311454987399184e+01   -5.06715852439597716e-06   -2.89299550227407579e-06   -1.20624792736993792e-06
2046-11-17T22:15:35.056971     1.25772474828942642e+08    7.41492981932848245e+07    3.09541132761347368e+07   -1.60270035449534660e+01    2.30950876992956147e+01    1.01425445161762227e+01   -5.02074036282769745e-06   -2.95991029942546254e-06   -1.23563431828987908e-06
2046-11-18T18:25:01.516546     1.24596274108292684e+08    7.58173753967529833e+07    3.16868428684995882e+07   -1.63896246248549105e+01    2.28778890438828135e+01    1.00518207991973902e+01   -4.97326274262274290e-06   -3.02618081863622340e-06   -1.26475144238818311e-06
2046-11-19T14:34:27.976123     1.23393885125349194e+08    7.74695172771200240e+07    3.24129125072175637e+07   -1.67487623071228455e+01    2.26559051783068170e+01    9.95899411466444207e+00   -4.92473645454277187e-06   -3.09179284414863741e-06   -1.29359304940699708e-06
2046-11-20T10:43:54.435698     1.22165563399163544e+08    7.91053783265869319e+07    3.31321703147909641e+07   -1.71043408906386958e+01    2.24291843989746909e+01    9.86408468100151126e+00   -4.87517246755318843e-06   -3.15673228939347678e-06   -1.32215294330397397e-06
2046-11-21T06:53:20.895274     1.20911570002919286e+08    8.07246166793774217e+07    3.38444659397520870e+07   -1.74562854758509296e+01    2.21977760202036762e+01    9.76711316444938227e+00   -4.82458189932500233e-06   -3.22098518397458159e-06   -1.35042497688108176e-06
2046-11-22T03:07:15.275011     1.19627401021222502e+08    8.23327778993155509e+07    3.45522407512284368e+07   -1.78058007457988978e+01    2.19608503284483980e+01    9.66773135468479516e+00   -4.77278423545171415e-06   -3.28477137632700365e-06   -1.37850595397876850e-06
2046-11-22T23:21:09.654749     1.18317913609164834e+08    8.39235142400623560e+07    3.52527029383685589e+07   -1.81515064876371817e+01    2.17193049142861199e+01    9.56631524949226808e+00   -4.71997594451507110e-06   -3.34783848000682474e-06   -1.40628484276364600e-06
2046-11-23T19:35:04.034486     1.16983387913868025e+08    8.54964911769086570e+07    3.59457051542073637e+07   -1.84933295343807416e+01    2.14731926421787414e+01    9.46288706741172803e+00   -4.66616917434782104e-06   -3.41017305746475551e-06   -1.43375571690890576e-06
2046-11-24T15:48:58.414223     1.15624109348471776e+08    8.70513780135634691e+07    3.66311016611286923e+07   -1.88311976099534490e+01    2.12225673506181671e+01    9.35746945665533048e+00   -4.61137624416176998e-06   -3.47176180400517525e-06   -1.46091270592028996e-06
2046-11-25T12:02:52.793960     1.14240368554213896e+08    8.85878480020158887e+07    3.73087483830926865e+07   -1.91650393422777441e+01    2.09674838415921556e+01    9.25008549067443830e+00   -4.55560966047706923e-06   -3.53259157062660658e-06   -1.48775000489660373e-06
2046-11-26T08:16:47.173697     1.12832461348347694e+08    9.01055784380782694e+07    3.79785029474647641e+07   -1.94947842773785958e+01    2.07079978685332833e+01    9.14075866307793028e+00   -4.49888212914378819e-06   -3.59264938288821390e-06   -1.51426188260370987e-06
2046-11-27T04:30:41.553434     1.11400688660756230e+08    9.16042507377348840e+07    3.86402247186383158e+07   -1.98203628942209598e+01    2.04441661230382685e+01    9.02951288202379132e+00   -4.44120656346155177e-06   -3.65192245580847088e-06   -1.54044268786435800e-06
2046-11-28T00:44:35.933171     1.09945356462133646e+08    9.30835504994040281e+07    3.92937748256363794e+07   -2.01417066199962029e+01    2.01760462206469171e+01    8.91637246420671659e+00   -4.38259608838681324e-06   -3.71039820478787355e-06   -1.56628685426066984e-06
2046-11-28T20:58:30.312909     1.08466775686603427e+08    9.45431675572214127e+07    3.99390161858773530e+07   -2.04587478455730079e+01    1.99036966859698943e+01    8.80136212856451472e+00   -4.32306404084542968e-06   -3.76806425256951224e-06   -1.59178890315487090e-06
2046-11-29T17:12:24.692646     1.06965262151643679e+08    9.59827960304531008e+07    4.05758135272898525e+07   -2.07714199408283697e+01    1.96271769374544682e+01    8.68450698982598546e+00   -4.26262396612204259e-06   -3.82490843221538237e-06   -1.61694344501917987e-06
2046-11-30T13:26:19.072383     1.05441136478189707e+08    9.74021343741453141e+07    4.12040334109617695e+07   -2.10796572695741098e+01    1.93465472720775153e+01    8.56583255202309957e+00   -4.20128961036551432e-06   -3.88091878612967200e-06   -1.64174517908778351e-06
2046-12-01T09:40:13.452120     1.03894724013783544e+08    9.88008854361196160e+07    4.18235442565087676e+07   -2.13833952037945068e+01    1.90618688502549212e+01    8.44536470209015100e+00   -4.13907490917971862e-06   -3.93608356110138590e-06   -1.66618889131947316e-06
2046-12-02T05:54:07.831857     1.02326354761640549e+08    1.00178756525421172e+08    4.24342163723472208e+07   -2.16825701369105630e+01    1.87732036812566108e+01    8.32312970367266658e+00   -4.07599397227916530e-06   -3.99039119935914694e-06   -1.69026945066772314e-06
